OBJECT_NAME,OBJECT_ID,EPOCH,MEAN_MOTION,ECCENTRICITY,INCLINATION,RA_OF_ASC_NODE,ARG_OF_PERICENTER,MEAN_ANOMALY,EPHEMERIS_TYPE,CLASSIFICATION_TYPE,NORAD_CAT_ID,ELEMENT_SET_NO,REV_AT_EPOCH,BSTAR,MEAN_MOTION_DOT,MEAN_MOTION_DDOT
BADR-7 (ARABSAT-6B),2015-065B,2026-06-19T19:50:40.010208,1.00268980,.00036584,0.0443,229.3504,332.3343,30.0165,0,U,41029,999,3879,0,.139E-5,0
LAOSAT 1,2015-067A,2026-06-19T20:19:50.164032,1.00268374,.00021652,0.0434,144.5319,256.2316,300.7421,0,U,41034,999,3888,0,-.349E-5,0
TELSTAR 12V,2015-068A,2026-06-19T20:36:38.516832,1.00271164,.00022497,0.0150,33.7449,48.0576,120.4350,0,U,41036,999,3865,0,-.125E-5,0
ELEKTRO-L 2,2015-074A,2026-06-18T00:52:34.633344,1.00270556,.00009025,6.6975,70.5132,256.1704,298.2263,0,U,41105,999,3851,0,-.126E-5,0
COSMOS 2513,2015-075A,2026-06-20T04:39:01.763424,1.00273662,.0003151,0.0777,99.2256,333.8070,345.3758,0,U,41121,999,3857,0,-.143E-5,0
EXPRESS-AMU1,2015-082A,2026-06-19T13:02:51.257184,1.00274906,.00029671,0.0009,12.4016,85.2485,41.9597,0,U,41191,999,3829,0,.15E-5,0
GAOFEN-4,2015-083A,2026-06-19T21:56:02.409792,1.00273444,.0004244,0.3657,83.7526,119.1948,139.8810,0,U,41194,999,3855,0,-.34E-5,0
BELINTERSAT-1,2016-001A,2026-06-19T18:15:10.713888,1.00273792,.00022879,0.0269,254.9569,151.9856,186.3094,0,U,41238,999,3826,0,.101E-5,0
IRNSS-1E,2016-003A,2026-06-18T17:31:47.913024,1.00277463,.00189408,33.2372,59.7280,178.9729,42.9724,0,U,41241,999,3809,0,-.318E-5,0
EUTELSAT 9B,2016-005A,2026-06-19T18:03:09.147744,1.00272548,.00016818,0.0874,76.5134,334.4759,136.7426,0,U,41310,999,3814,0,.56E-6,0
SES-9,2016-013A,2026-06-18T21:59:29.946048,1.00270880,.0002105,0.0107,340.0830,104.5244,260.7094,0,U,41380,999,3745,0,-.351E-5,0
EUTELSAT 65 WEST A,2016-014A,2026-06-19T21:07:15.616704,1.00273581,.00024213,0.0508,337.2882,107.2673,75.1415,0,U,41382,999,3755,0,-.282E-5,0
IRNSS-1F,2016-015A,2026-06-19T19:52:24.841920,1.00268746,.00174314,5.3554,96.7216,184.9826,316.8793,0,U,41384,999,3769,0,.151E-5,0
BEIDOU-2 IGSO-6,2016-021A,2026-06-16T02:58:21.700128,1.00259474,.00571844,60.2243,38.0497,231.4868,132.3999,0,U,41434,999,3747,0,-.15E-5,0
IRNSS-1G,2016-027A,2026-06-18T16:32:08.571840,1.00265368,.00075489,5.2016,97.4387,355.5290,191.4476,0,U,41469,999,3719,0,-.343E-5,0
JCSAT-2B,2016-028A,2026-06-19T20:27:04.470048,1.00272022,.00009309,0.0181,9.7102,81.0120,278.1151,0,U,41471,999,3715,0,-.171E-5,0
THAICOM 8,2016-031A,2026-06-19T20:05:36.487104,1.00271937,.0003682,0.0592,37.2388,22.0986,228.5985,0,U,41552,999,3674,0,-.127E-5,0
INTELSAT 31 (IS-31),2016-035A,2026-06-19T02:09:30.712320,1.00264216,.00011277,0.0171,269.3791,318.6423,336.6183,0,U,41581,999,3670,0,-.156E-5,0
BEIDOU-2 G7,2016-037A,2026-06-19T21:57:24.778368,1.00275104,.00064635,1.7277,69.3496,357.9912,280.6400,0,U,41586,999,691,0,-.359E-5,0
ABS-2A (MONGOLSAT-1),2016-038A,2026-06-19T22:43:05.130624,1.00268987,.00013842,0.0117,23.0918,6.7895,293.7863,0,U,41588,999,3673,0,-.89E-6,0
EUTELSAT 117 WEST B,2016-038B,2026-06-18T22:37:55.689024,1.00271826,.00006025,0.0100,153.3935,317.0300,19.2461,0,U,41589,999,3668,0,-.18E-6,0
BRISAT,2016-039A,2026-06-18T15:03:38.613600,1.00269327,.00019333,0.0220,335.4597,106.9867,200.8217,0,U,41591,999,3662,0,0,0
ECHOSTAR 18,2016-039B,2026-06-19T21:08:23.008704,1.00268881,.00013543,0.0178,13.9459,88.8158,61.0483,0,U,41592,999,3665,0,-.287E-5,0
MUOS-5,2016-041A,2026-06-19T20:55:16.766112,1.00273030,.01975699,2.1970,301.7309,260.7684,274.1961,0,U,41622,999,3711,0,-.149E-5,0
TIANTONG-1 1,2016-048A,2026-06-19T20:29:21.757056,1.00273615,.00055911,3.8552,43.4494,44.3971,228.9768,0,U,41725,999,3629,0,-.324E-5,0
JCSAT-16,2016-050A,2026-06-19T20:24:12.244608,1.00270976,.0000948,0.0180,2.3770,92.1119,263.5758,0,U,41729,999,3609,0,-.257E-5,0
USA 270,2016-052A,2026-06-16T14:14:22.517952,0.99499640,.000073,4.1965,77.2060,182.0156,35.6177,0,U,41744,999,2812,0,-.127E-5,0
USA 271,2016-052B,2026-06-16T18:42:08.176320,0.99837813,.0002276,4.1686,77.2569,292.3319,292.8146,0,U,41745,999,2791,0,-.332E-5,0
INTELSAT 36 (IS-36),2016-053A,2026-06-18T23:56:21.800256,1.00271257,.00021211,0.0124,11.1204,322.4188,1.2761,0,U,41747,999,3597,0,-.31E-6,0
INSAT-3DR,2016-054A,2026-06-19T23:00:50.980032,1.00271248,.0010456,0.1137,86.2300,187.5985,53.5247,0,U,41752,999,3584,0,-.82E-6,0
GSAT-18,2016-060A,2026-06-19T23:00:50.988672,1.00271303,.00055676,0.0663,95.5532,338.7980,253.0088,0,U,41793,999,3555,0,-.82E-6,0
SKY MUSTER 2 (NBN1B),2016-060B,2026-06-18T18:44:37.007232,1.00269897,.00014721,0.0020,21.1968,66.7815,244.9836,0,U,41794,999,3553,0,-.251E-5,0
HIMAWARI-9,2016-064A,2026-06-19T20:23:19.829184,1.00270044,.00010465,0.0181,315.7897,172.9640,225.8982,0,U,41836,999,3523,0,-.281E-5,0
SHIJIAN-17 (SJ-17),2016-065A,2026-06-19T14:42:43.554240,0.99855462,.0001902,5.7599,72.5770,27.4663,260.6195,0,U,41838,999,3522,0,.81E-6,0
GOES 16,2016-071A,2026-06-19T20:56:01.694112,1.00271359,.00002915,0.3492,85.5236,333.2967,58.5806,0,U,41866,999,3513,0,-.96E-6,0
TIANLIAN 1-04,2016-072A,2026-06-19T20:33:33.848064,1.00271763,.00425228,0.8747,82.8988,90.0950,220.2410,0,U,41869,999,3532,0,.25E-6,0
WGS F8 (USA 272),2016-075A,2026-06-19T20:25:57.077184,1.00273737,.00001954,0.0137,102.6601,282.1596,339.5364,0,U,41879,999,3484,0,-.208E-5,0
FENGYUN 4A,2016-077A,2026-06-20T00:32:38.719968,1.00267460,.0008472,2.3308,80.2617,153.0668,166.7941,0,U,41882,999,3495,0,-.363E-5,0
ECHOSTAR 19,2016-079A,2026-06-19T20:58:08.989824,1.00271216,.00012525,0.0176,21.3295,70.1789,34.0186,0,U,41893,999,3473,0,-.144E-5,0
JCSAT-110A (JCSAT-15),2016-082A,2026-06-19T22:57:39.758688,1.00269785,.00005252,0.0186,13.0383,85.3265,264.2781,0,U,41903,999,3478,0,-.356E-5,0
STAR ONE D1,2016-082B,2026-06-19T21:01:53.630688,1.00270383,.00022381,0.0141,25.4548,79.2934,34.8119,0,U,41904,999,3480,0,-.216E-5,0
TJS-2,2017-001A,2026-06-19T20:02:14.310240,1.00270324,.00004039,0.8412,85.2921,56.3264,133.5384,0,U,41911,999,3474,0,-.12E-6,0
SBIRS GEO-4 (USA 273),2017-004A,2026-06-19T20:12:38.611584,1.00271960,.00020392,2.2490,43.3718,36.3457,152.3974,0,U,41937,999,3462,0,.117E-5,0
HISPASAT 36W-1,2017-006A,2026-06-19T04:08:58.135776,1.00280304,.00015174,0.0158,176.4567,251.7801,225.4062,0,U,41942,999,3426,0,-.25E-5,0
TELKOM 3S,2017-007A,2026-06-19T21:12:24.435360,1.00269511,.00023483,0.0160,0.9497,90.2479,253.0201,0,U,41944,999,3416,0,0,0
INTELSAT 32E (IS-32E),2017-007B,2026-06-19T20:52:38.421696,1.00276047,.00009116,0.0183,12.7396,302.1800,223.1458,0,U,41945,999,3425,0,-.274E-5,0
ECHOSTAR 23,2017-014A,2026-06-19T20:54:24.348960,1.00269773,.00021749,0.0181,9.1430,75.9621,26.6823,0,U,42070,999,3395,0,-.62E-6,0
WGS F9 (USA 275),2017-016A,2026-06-19T20:28:38.572608,1.00270351,.00003685,0.0190,354.2291,314.4939,254.5056,0,U,42075,999,3392,0,0,0
SES-10,2017-017A,2026-06-19T22:50:39.929856,1.00276618,.0002549,0.0208,37.7019,54.4278,91.8117,0,U,42432,999,3378,0,-.278E-5,0
CHINASAT 16 (SJ-13),2017-018A,2026-06-20T04:13:38.743968,1.00271663,.0004097,0.1035,89.8840,134.5735,217.8376,0,U,42662,999,3377,0,-.357E-5,0
KOREASAT 7,2017-023A,2026-06-19T20:16:13.009728,1.00273900,.00007561,0.0200,339.5924,70.2170,278.2021,0,U,42691,999,3339,0,-.367E-5,0
SGDC,2017-023B,2026-06-19T11:08:46.687200,1.00269845,.00026582,0.0153,1.7535,93.9038,264.3605,0,U,42692,999,3343,0,-.255E-5,0
GSAT-9,2017-024A,2026-06-19T23:05:10.604256,1.00268108,.00025339,0.0138,63.2631,21.7564,266.7590,0,U,42695,999,3332,0,-.291E-5,0
INMARSAT 5-F4,2017-025A,2026-06-19T19:59:14.598240,1.00269644,.00004059,0.0177,21.0270,359.7992,243.5212,0,U,42698,999,3330,0,.7E-6,0
SES-15,2017-026A,2026-06-19T17:23:46.764384,1.00267764,.00004199,0.0199,335.2563,73.0761,351.3876,0,U,42709,999,745,0,.54E-6,0
QZS-2 (MICHIBIKI-2),2017-028A,2026-06-19T11:28:51.813408,1.00283355,.0758837,39.4240,243.1214,269.2922,69.3071,0,U,42738,999,764,0,-.184E-5,0
VIASAT-2,2017-029A,2026-06-19T22:54:49.258656,1.00279231,.00005532,0.0178,299.0079,23.8719,219.1087,0,U,42740,999,3323,0,-.271E-5,0
EUTELSAT 172B,2017-029B,2026-06-19T20:32:18.966912,1.00270790,.00000178,0.0344,141.5789,112.3230,134.2659,0,U,42741,999,3376,0,-.11E-6,0
GSAT-19,2017-031A,2026-06-19T18:14:10.810176,1.00271028,.00070325,0.0319,264.8417,166.2840,158.2777,0,U,42747,999,3317,0,.12E-5,0
ECHOSTAR 21,2017-032A,2026-06-19T23:37:58.226880,1.00271168,.00021979,1.7705,355.9318,95.0182,182.0027,0,U,42749,999,3312,0,.59E-6,0
BULGARIASAT-1,2017-038A,2026-06-19T18:49:38.807616,1.00270624,.00031337,0.0119,51.4195,49.0961,91.7894,0,U,42801,999,3287,0,.5E-7,0
HELLAS-SAT 3,2017-040A,2026-06-19T19:54:17.162784,1.00272849,.00047415,0.0548,51.2431,4.2343,190.1248,0,U,42814,999,3283,0,.147E-5,0
GSAT-17,2017-040B,2026-06-19T22:38:37.567968,1.00270712,.00018482,0.0164,36.2631,269.7059,35.3242,0,U,42815,999,3281,0,-.263E-5,0
INTELSAT 35E (IS-35E),2017-041A,2026-06-19T21:15:53.883648,1.00270538,.00020963,0.0199,17.7179,71.1520,103.7192,0,U,42818,999,3284,0,0,0
COSMOS 2520,2017-046A,2026-06-19T19:56:01.995360,1.00276875,.00010186,0.0481,94.6853,9.5969,147.7813,0,U,42907,999,3242,0,.131E-5,0
TDRS 13,2017-047A,2026-06-19T20:28:38.572608,1.00271855,.00146161,3.4524,2.8215,106.4132,94.5596,0,U,42915,999,3237,0,-.106E-5,0
QZS-3 (MICHIBIKI-3),2017-048A,2026-06-19T20:19:27.699168,1.00274949,.00019668,0.0609,164.2084,280.3206,255.4033,0,U,42917,999,3228,0,-.353E-5,0
AMAZONAS 5,2017-053A,2026-06-19T19:38:38.806080,1.00272941,.00020542,0.0306,327.9000,69.6732,104.1259,0,U,42934,999,3207,0,-.288E-5,0
ASIASAT 9,2017-057A,2026-06-19T18:35:18.438144,1.00269249,.00025444,0.0136,103.3432,331.7850,233.7914,0,U,42942,999,3188,0,-.365E-5,0
INTELSAT 37E (IS-37E),2017-059A,2026-06-19T20:36:38.516832,1.00271087,.00025783,0.0183,15.8076,96.8898,86.5479,0,U,42950,999,3209,0,-.146E-5,0
BSAT-4A,2017-059B,2026-06-19T22:57:39.820896,1.00270281,.00040548,0.0338,353.6583,77.0574,291.6994,0,U,42951,999,3182,0,-.355E-5,0
QZS-4 (MICHIBIKI-4),2017-062A,2026-06-18T08:24:11.162016,1.00250086,.0745019,40.1070,343.4662,271.8091,274.2172,0,U,42965,999,3181,0,-.36E-5,0
